[{"OBJECT_NAME":"YAOGAN-30 09B","OBJECT_ID":"2021-039B","EPOCH":"2026-03-09T22:20:48.922656","MEAN_MOTION":15.02072563,"ECCENTRICITY":0.00040485,"INCLINATION":34.9947,"RA_OF_ASC_NODE":275.8048,"ARG_OF_PERICENTER":16.716,"MEAN_ANOMALY":343.368,"EPHEMERIS_TYPE":0,"CLASSIFICATION_TYPE":"U","NORAD_CAT_ID":48424,"ELEMENT_SET_NO":999,"REV_AT_EPOCH":26460,"BSTAR":0.00030086598,"MEAN_MOTION_DOT":4.004e-5,"MEAN_MOTION_DDOT":0},{"OBJECT_NAME":"STARLINK-5548","OBJECT_ID":"2023-058T","EPOCH":"2026-03-09T21:34:59.195136","MEAN_MOTION":15.0565475,"ECCENTRICITY":0.00016208,"INCLINATION":97.6035,"RA_OF_ASC_NODE":71.5075,"ARG_OF_PERICENTER":88.5983,"MEAN_ANOMALY":271.5429,"EPHEMERIS_TYPE":0,"CLASSIFICATION_TYPE":"U","NORAD_CAT_ID":56334,"ELEMENT_SET_NO":999,"REV_AT_EPOCH":15823,"BSTAR":0.00042818172,"MEAN_MOTION_DOT":6.124e-5,"MEAN_MOTION_DDOT":0}]
